{
    "links": {
        "self": "http://www.neowsapp.com/rest/v1/neo/3837538?api_key=iIulBulltgU6a56xZRHN4H3l9WmuAYTsLGpBGhQ2"
    },
    "id": "3837538",
    "neo_reference_id": "3837538",
    "name": "(2018 YV2)",
    "designation": "2018 YV2",
    "nasa_jpl_url": "http://ssd.jpl.nasa.gov/sbdb.cgi?sstr=3837538",
    "absolute_magnitude_h": 24.2,
    "estimated_diameter": {
        "kilometers": {
            "estimated_diameter_min": 0.0384197891,
            "estimated_diameter_max": 0.0859092601
        },
        "meters": {
            "estimated_diameter_min": 38.4197891064,
            "estimated_diameter_max": 85.9092601232
        },
        "miles": {
            "estimated_diameter_min": 0.0238729428,
            "estimated_diameter_max": 0.0533815229
        },
        "feet": {
            "estimated_diameter_min": 126.0491808919,
            "estimated_diameter_max": 281.8545369825
        }
    },
    "is_potentially_hazardous_asteroid": false,
    "close_approach_data": [
        {
            "close_approach_date": "2019-01-01",
            "close_approach_date_full": "2019-Jan-01 18:32",
            "epoch_date_close_approach": 1546367520000,
            "relative_velocity": {
                "kilometers_per_second": "11.7186523264",
                "kilometers_per_hour": "42187.1483751174",
                "miles_per_hour": "26213.4533889723"
            },
            "miss_distance": {
                "astronomical": "0.068321309",
                "lunar": "26.576989201",
                "kilometers": "10220722.30201183",
                "miles": "6350862.345070054"
            },
            "orbiting_body": "Earth"
        },
        {
            "close_approach_date": "2020-11-24",
            "close_approach_date_full": "2020-Nov-24 16:28",
            "epoch_date_close_approach": 1606235280000,
            "relative_velocity": {
                "kilometers_per_second": "4.1345054916",
                "kilometers_per_hour": "14884.2197695927",
                "miles_per_hour": "9248.4753340561"
            },
            "miss_distance": {
                "astronomical": "1.3837309065",
                "lunar": "538.2713226285",
                "kilometers": "207003196.265569155",
                "miles": "128625821.700818139"
            },
            "orbiting_body": "Juptr"
        },
        {
            "close_approach_date": "2118-12-09",
            "close_approach_date_full": "2118-Dec-09 14:47",
            "epoch_date_close_approach": 4700040420000,
            "relative_velocity": {
                "kilometers_per_second": "19.8755086957",
                "kilometers_per_hour": "71551.8313043857",
                "miles_per_hour": "44459.5254013279"
            },
            "miss_distance": {
                "astronomical": "0.3585976853",
                "lunar": "139.4944995817",
                "kilometers": "53645449.907810311",
                "miles": "33333736.8667958518"
            },
            "orbiting_body": "Earth"
        }
    ],
    "orbital_data": {
        "orbit_id": "3",
        "orbit_determination_date": "2019-01-26 09:34:36",
        "first_observation_date": "2018-12-31",
        "last_observation_date": "2019-01-08",
        "data_arc_in_days": 8,
        "observations_used": 42,
        "orbit_uncertainty": "8",
        "minimum_orbit_intersection": ".0578372",
        "jupiter_tisserand_invariant": "3.243",
        "epoch_osculation": "2458484.5",
        "eccentricity": ".5773157733476186",
        "semi_major_axis": "2.399511088440924",
        "inclination": "14.21977437228468",
        "ascending_node_longitude": "98.56965653477678",
        "orbital_period": "1357.633571553159",
        "perihelion_distance": "1.014235488761466",
        "perihelion_argument": "25.06406231738757",
        "aphelion_distance": "3.784786688120383",
        "perihelion_time": "2458502.652017525190",
        "mean_anomaly": "355.1866789051242",
        "mean_motion": ".2651672789647894",
        "equinox": "J2000",
        "orbit_class": {
            "orbit_class_type": "APO",
            "orbit_class_description": "Near-Earth asteroid orbits which cross the Earth’s orbit similar to that of 1862 Apollo",
            "orbit_class_range": "a (semi-major axis) > 1.0 AU; q (perihelion) < 1.017 AU"
        }
    },
    "is_sentry_object": false
}